[{"OBJECT_NAME":"STARLINK-2116","OBJECT_ID":"2021-017C","EPOCH":"2026-03-10T00:00:02.999808","MEAN_MOTION":15.83206556,"ECCENTRICITY":0.00033393,"INCLINATION":53.0386,"RA_OF_ASC_NODE":82.6444,"ARG_OF_PERICENTER":325.049,"MEAN_ANOMALY":111.3473,"EPHEMERIS_TYPE":0,"CLASSIFICATION_TYPE":"U","NORAD_CAT_ID":47724,"ELEMENT_SET_NO":999,"REV_AT_EPOCH":599,"BSTAR":0.0013667213,"MEAN_MOTION_DOT":0.00311123,"MEAN_MOTION_DDOT":0},{"OBJECT_NAME":"STARLINK-36889","OBJECT_ID":"2026-039W","EPOCH":"2026-03-09T22:00:01.999584","MEAN_MOTION":15.85471581,"ECCENTRICITY":0.00015275,"INCLINATION":42.9979,"RA_OF_ASC_NODE":53.3437,"ARG_OF_PERICENTER":264.2793,"MEAN_ANOMALY":74.527,"EPHEMERIS_TYPE":0,"CLASSIFICATION_TYPE":"U","NORAD_CAT_ID":68006,"ELEMENT_SET_NO":999,"REV_AT_EPOCH":291,"BSTAR":-0.0071582541,"MEAN_MOTION_DOT":-0.01562464,"MEAN_MOTION_DDOT":0}]
